MEAN_MOTION;ECCENTRICITY;INCLINATION;RA_OF_ASC_NODE;ARG_OF_PERICENTER;MEAN_ANOMALY;BSTAR;MEAN_MOTION_DOT;MEAN_MOTION_DDOT;TYPE
0.9993707;2.45E-5;13.0949;328.847;91.4258;86.185;0;-4.9E-7;0;Intelsat
0.99937313;2.58E-5;13.0934;328.8359;96.1978;82.9414;0;-6.1E-7;0;Intelsat
0.99937455;1.97E-5;13.0927;328.8307;92.0065;260.04;0;-6.7E-7;0;Intelsat
0.99937752;2.1E-5;13.0906;328.814;99.5808;82.6014;0;-8.5E-7;0;Intelsat
0.99938106;2.33E-5;13.0877;328.7922;101.8916;83.3068;0;-1.08E-6;0;Intelsat
0.99938266;2.02E-5;13.0862;328.7812;94.8824;91.824;0;-1.18E-6;0;Intelsat
0.99938388;2.1E-5;13.0847;328.7703;92.7551;95.4626;0;-1.27E-6;0;Intelsat
0.99938498;2.2E-5;13.0833;328.7594;91.0533;98.6996;0;-1.35E-6;0;Intelsat
0.99938542;3.96E-5;13.0807;328.7439;100.724;245.5221;0;-1.45E-6;0;Intelsat
0.99938577;4.09E-5;13.08;328.7385;100.6171;66.3779;0;-1.49E-6;0;Intelsat
0.99938648;4.41E-5;13.0785;328.7276;99.9995;68.5347;0;-1.55E-6;0;Intelsat
0.99938657;4.45E-5;13.0784;328.7268;100.1568;94.1404;0;-1.56E-6;0;Intelsat
0.99938675;4.73E-5;13.077;328.7167;99.8185;70.2192;0;-1.62E-6;0;Intelsat
0.99938684;4.76E-5;13.077;328.7159;100.0407;95.7659;0;-1.62E-6;0;Intelsat
0.99938684;4.96E-5;13.0764;328.7113;100.6719;250.1234;0;-1.65E-6;0;Intelsat
0.99938691;5.1E-5;13.0756;328.7058;100.0821;71.4256;0;-1.68E-6;0;Intelsat
0.99938688;5.33E-5;13.0749;328.7003;100.7215;251.5669;0;-1.72E-6;0;Intelsat
0.99938685;5.71E-5;13.0734;328.6894;101.037;252.7248;0;-1.78E-6;0;Intelsat
0.99938672;5.86E-5;13.0726;328.684;100.439;74.0987;0;-1.81E-6;0;Intelsat
0.99938607;6.33E-5;13.071;328.6731;102.9173;73.1588;0;-1.88E-6;0;Intelsat
0.99938591;6.6E-5;13.0703;328.6677;104.6962;252.1376;0;-1.91E-6;0;Intelsat
0.99938564;6.89E-5;13.0695;328.6622;105.8383;71.7505;0;-1.94E-6;0;Intelsat
0.9993851;7.2E-5;13.068;328.6514;105.763;73.3474;0;-2.0E-6;0;Intelsat
0.99938446;7.51E-5;13.0673;328.646;107.502;252.3331;0;-2.03E-6;0;Intelsat
0.99938383;7.96E-5;13.0657;328.6352;108.5664;252.7737;0;-2.1E-6;0;Intelsat
0.99938292;8.4E-5;13.0642;328.6244;109.5479;253.3008;0;-2.15E-6;0;Intelsat
0.99938225;8.6E-5;13.0634;328.619;109.821;73.8221;0;-2.18E-6;0;Intelsat
0.99938094;9.05E-5;13.0619;328.6082;111.2991;73.8679;0;-2.24E-6;0;Intelsat
0.99937966;9.49E-5;13.0603;328.5974;112.9892;73.6829;0;-2.29E-6;0;Intelsat
0.99937814;9.91E-5;13.0587;328.5865;114.9385;73.2393;0;-2.36E-6;0;Intelsat
0.99937572;0.0001034;13.0574;328.5734;116.4774;151.9182;0;-2.43E-6;0;Intelsat
0.99937417;0.000106;13.0562;328.5648;117.7977;73.4013;0;-2.49E-6;0;Intelsat
0.99937338;0.0001073;13.0555;328.5602;118.1514;228.0346;0;-2.52E-6;0;Intelsat
0.99937068;0.0001125;13.0533;328.5438;120.8139;47.6288;0;-2.63E-6;0;Intelsat
0.9993695;0.0001136;13.0526;328.5383;121.1871;228.0101;0;-2.67E-6;0;Intelsat
0.99936816;0.0001147;13.0518;328.5328;121.9209;48.0444;0;-2.71E-6;0;Intelsat
0.99936691;0.0001147;13.0511;328.5274;121.8051;228.9153;0;-2.75E-6;0;Intelsat
0.99936429;0.0001161;13.0496;328.5166;122.477;229.7271;0;-2.82E-6;0;Intelsat
0.99936306;0.0001172;13.0489;328.5112;123.0824;49.9051;0;-2.85E-6;0;Intelsat
0.99936169;0.0001174;13.0482;328.5058;123.1344;230.5586;0;-2.88E-6;0;Intelsat
0.99935856;0.0001188;13.0467;328.495;123.6689;231.5602;0;-2.94E-6;0;Intelsat
0.99935554;0.0001195;13.0445;328.4842;123.6228;233.1258;0;-2.98E-6;0;Intelsat
0.99935413;0.0001207;13.0437;328.4789;123.8561;53.645;0;-3.0E-6;0;Intelsat
0.99935107;0.0001222;13.0422;328.4681;123.9814;55.0231;0;-3.02E-6;0;Intelsat
0.99934936;0.0001228;13.0414;328.4628;123.928;235.8231;0;-3.03E-6;0;Intelsat
0.99934606;0.0001247;13.0399;328.452;123.937;237.3153;0;-3.04E-6;0;Intelsat
0.99934443;0.0001259;13.0391;328.4466;123.9893;57.9891;0;-3.04E-6;0;Intelsat
0.99934291;0.0001266;13.0386;328.4411;123.8572;238.8922;0;-3.04E-6;0;Intelsat
0.99933926;0.0001287;13.037;328.4303;123.6674;240.5834;0;-3.04E-6;0;Intelsat
0.99933727;0.0001295;13.036;328.425;123.4722;61.5293;0;-3.04E-6;0;Intelsat
0.99933546;0.0001311;13.0352;328.4196;123.4657;242.2528;0;-3.04E-6;0;Intelsat
0.99933222;0.0001338;13.0345;328.4087;123.2754;243.9682;0;-3.03E-6;0;Intelsat
0.99933021;0.0001346;13.0337;328.4033;123.0314;64.9327;0;-3.03E-6;0;Intelsat
0.99932835;0.0001367;13.0329;328.3979;123.2891;245.4413;0;-3.02E-6;0;Intelsat
0.9993228;0.0001408;13.0307;328.3824;123.2227;41.961;0;-3.01E-6;0;Intelsat
0.99932253;0.0001412;13.0306;328.3817;123.2159;67.7347;0;-3.01E-6;0;Intelsat
0.99932078;0.0001437;13.0299;328.3766;123.7635;235.1876;0;-3.0E-6;0;Intelsat
0.9993171;0.0001481;13.0282;328.3655;124.3442;248.8331;0;-2.99E-6;0;Intelsat
0.99931526;0.0001499;13.0275;328.3601;124.2792;69.6724;0;-2.98E-6;0;Intelsat
0.99931343;0.000152;13.0267;328.3547;124.7463;249.8825;0;-2.97E-6;0;Intelsat
0.99930784;0.0001579;13.0244;328.3393;125.3439;48.2193;0;-2.94E-6;0;Intelsat
0.99930598;0.0001604;13.0236;328.334;125.9151;225.9113;0;-2.93E-6;0;Intelsat
0.99930598;0.0001604;13.0236;328.334;125.9151;225.9113;0;-2.93E-6;0;Intelsat
0.99930429;0.0001623;13.0228;328.3285;126.12;50.9764;0;-2.92E-6;0;Intelsat
0.99930246;0.0001647;13.022;328.3233;126.665;226.6506;0;-2.9E-6;0;Intelsat
0.9992984;0.0001689;13.0205;328.3122;127.454;234.2755;0;-2.88E-6;0;Intelsat
0.99929478;0.0001725;13.0189;328.3017;128.1777;228.0851;0;-2.85E-6;0;Intelsat
0.9992892;0.0001779;13.0163;328.2856;129.5647;42.0501;0;-2.82E-6;0;Intelsat
0.99928923;0.0001783;13.0162;328.2852;129.6728;55.9603;0;-2.83E-6;0;Intelsat
0.9992873;0.0001802;13.0155;328.28;130.1193;229.0907;0;-2.81E-6;0;Intelsat
0.99927988;0.0001869;13.0123;328.2582;132.0188;230.1517;0;-2.8E-6;0;Intelsat
0.99927592;0.0001895;13.0107;328.2473;132.9676;230.6624;0;-2.79E-6;0;Intelsat
0.9992722;0.0001918;13.0092;328.2364;133.912;231.193;0;-2.79E-6;0;Intelsat
0.99926855;0.0001933;13.0077;328.2255;134.6773;231.8954;0;-2.78E-6;0;Intelsat
0.9992647;0.0001949;13.0062;328.2147;135.4524;232.5922;0;-2.77E-6;0;Intelsat
0.99926117;0.000196;13.0046;328.2039;136.1064;233.4096;0;-2.74E-6;0;Intelsat
0.99925746;0.0001967;13.0031;328.1932;136.558;234.4167;0;-2.71E-6;0;Intelsat
0.99925423;0.0001974;13.0016;328.1827;136.9448;225.2066;0;-2.66E-6;0;Intelsat
0.99925047;0.0001985;13;328.1717;137.3093;236.58;0;-2.61E-6;0;Intelsat
0.99924673;0.0001993;12.9984;328.1609;137.4842;237.8875;0;-2.54E-6;0;Intelsat
0.99924353;0.0001996;12.9969;328.1505;137.4433;225.4804;0;-2.47E-6;0;Intelsat
0.99924173;0.0002004;12.9961;328.1451;137.567;44.4981;0;-2.44E-6;0;Intelsat
0.99924005;0.0002011;12.9953;328.1398;137.6111;222.5812;0;-2.4E-6;0;Intelsat
0.99923673;0.0002024;12.9937;328.1289;137.6107;227.9355;0;-2.32E-6;0;Intelsat
0.99923441;0.0002033;12.9924;328.1207;137.4406;144.1569;0;-2.27E-6;0;Intelsat
0.99923378;0.0002037;12.9921;328.1184;137.5064;217.9145;0;-2.25E-6;0;Intelsat
0.99923129;0.0002059;12.9906;328.1082;137.6176;196.459;0;-2.18E-6;0;Intelsat
0.99922759;0.0002084;12.9889;328.0968;137.7162;215.4559;0;-2.1E-6;0;Intelsat
0.999225;0.0002109;12.9872;328.0858;137.8291;221.9455;0;-2.01E-6;0;Intelsat
0.99922229;0.0002136;12.9856;328.075;137.9478;223.2824;0;-1.93E-6;0;Intelsat
0.99922004;0.0002166;12.9839;328.0642;138.1923;224.4307;0;-1.85E-6;0;Intelsat
0.99921753;0.0002201;12.9823;328.0534;138.58;225.5463;0;-1.77E-6;0;Intelsat
0.99921588;0.0002211;12.9815;328.0482;138.5483;40.4773;0;-1.72E-6;0;Intelsat
0.99921316;0.0002269;12.9791;328.032;139.3976;219.3722;0;-1.6E-6;0;Intelsat
0.99921217;0.0002291;12.978;328.0247;139.5863;104.263;0;-1.54E-6;0;Intelsat
0.99921192;0.0002294;12.9778;328.0237;139.6428;136.1537;0;-1.53E-6;0;Intelsat
0.99920951;0.0002336;12.9758;328.01;140.4091;229.4526;0;-1.43E-6;0;Intelsat
0.99920799;0.0002367;12.9743;327.9999;140.9733;204.5754;0;-1.35E-6;0;Intelsat
0.99920782;0.000237;12.9742;327.9992;141.0456;230.2492;0;-1.35E-6;0;Intelsat
0.99920631;0.0002402;12.9727;327.9882;141.7388;231.0225;0;-1.27E-6;0;Intelsat
0.99920513;0.0002432;12.9711;327.9778;142.5291;214.8764;0;-1.21E-6;0;Intelsat
0.9992049;0.0002434;12.9711;327.9773;142.5362;231.665;0;-1.21E-6;0;Intelsat
0.99920395;0.0002459;12.9695;327.9662;143.2798;232.3381;0;-1.15E-6;0;Intelsat
0.99920298;0.0002477;12.968;327.9558;143.9798;216.7872;0;-1.1E-6;0;Intelsat
0.99920246;0.0002491;12.9673;327.9505;144.4386;27.5996;0;-1.08E-6;0;Intelsat
0.99920149;0.0002495;12.9664;327.9446;144.7011;222.6177;0;-1.05E-6;0;Intelsat
0.99920145;0.0002506;12.9648;327.9334;145.3599;230.0253;0;-1.0E-6;0;Intelsat
0.99920104;0.0002516;12.9641;327.9286;145.7787;29.1409;0;-9.8E-7;0;Intelsat
0.9992004;0.0002511;12.9634;327.9231;145.9956;209.6318;0;-9.6E-7;0;Intelsat
0.99919962;0.0002513;12.9618;327.9122;146.5608;210.5126;0;-9.0E-7;0;Intelsat
0.99919926;0.0002514;12.9602;327.9013;147.0767;211.4343;0;-8.4E-7;0;Intelsat
0.99919933;0.0002526;12.9587;327.8904;147.8048;212.1243;0;-7.7E-7;0;Intelsat
0.99919887;0.0002527;12.9568;327.878;148.1525;265.5686;0;-6.8E-7;0;Intelsat
0.99919919;0.0002525;12.9552;327.8672;148.4375;264.2547;0;-5.9E-7;0;Intelsat
0.99919908;0.0002522;12.9538;327.8577;148.5715;215.7038;0;-5.1E-7;0;Intelsat
0.99919939;0.0002527;12.953;327.8522;148.704;36.2655;0;-4.6E-7;0;Intelsat
0.99919953;0.0002522;12.9522;327.8469;148.6203;210.6384;0;-4.2E-7;0;Intelsat
0.99919985;0.0002531;12.9506;327.8357;148.8792;218.2548;0;-3.2E-7;0;Intelsat
0.99920044;0.0002536;12.9496;327.8286;148.9164;89.7257;0;-2.7E-7;0;Intelsat
0.99920075;0.0002538;12.949;327.8248;148.9206;215.0396;0;-2.3E-7;0;Intelsat
0.99920138;0.0002546;12.9473;327.8136;148.9359;221.0679;0;-1.4E-7;0;Intelsat
0.9992024;0.0002557;12.9458;327.8034;148.9503;197.7938;0;-6.0E-8;0;Intelsat
0.99920255;0.0002557;12.9457;327.8024;148.9779;229.6289;0;-5.0E-8;0;Intelsat
0.99920394;0.0002571;12.9441;327.7915;149.0605;227.9053;0;3.0E-8;0;Intelsat
0.99920533;0.0002588;12.9425;327.7805;149.1412;227.2583;0;1.1E-7;0;Intelsat
0.99920698;0.000261;12.9409;327.7696;149.4023;226.3439;0;1.9E-7;0;Intelsat
0.99920853;0.0002633;12.9394;327.7594;149.5932;201.8722;0;2.7E-7;0;Intelsat
0.9992094;0.0002643;12.9386;327.7539;149.747;22.4374;0;3.1E-7;0;Intelsat
0.99921045;0.0002662;12.9376;327.7477;150.0135;225.5891;0;3.5E-7;0;Intelsat
